start=new Date('2022-05-25T00:00:00.000Z').valueOf();
sats=[{"OBJECT_NAME":"STARLINK-2684","ELEMENT_SET_NO":"999","RCS_SIZE":"LARGE","MEAN_ELEMENT_THEORY":"SGP4","PERIOD":"95.592","INCLINATION":"53.0544","DECAY_DATE":null,"CLASSIFICATION_TYPE":"U","NORAD_CAT_ID":"48471","APOAPSIS":"548.508","MEAN_MOTION":"15.06401412","TLE_LINE1":"1 48471U 21040AV  22144.71832138  .00001300  00000-0  10614-3 0  9996","RA_OF_ASC_NODE":"288.9961","GP_ID":"204454567","TLE_LINE2":"2 48471  53.0544 288.9961 0001875  52.7563 307.3597 15.06401412 57740","OBJECT_TYPE":"PAYLOAD","LAUNCH_DATE":"2021-05-09","FILE":"3462783","MEAN_MOTION_DOT":"0.00001300","ARG_OF_PERICENTER":"52.7563","REF_FRAME":"TEME","ECCENTRICITY":"0.00018750","MEAN_MOTION_DDOT":"0.0000000000000","REV_AT_EPOCH":"5774","EPHEMERIS_TYPE":"0","EPOCH":"2022-05-24T17:14:22.967232","OBJECT_ID":"2021-040AV","PERIAPSIS":"545.911","CENTER_NAME":"EARTH","MEAN_ANOMALY":"307.3597","SEMIMAJOR_AXIS":"6925.344","BSTAR":"0.00010614000000","TIME_SYSTEM":"UTC","SITE":"AFETR","COUNTRY_CODE":"US"},{"REF_FRAME":"TEME","ARG_OF_PERICENTER":"56.3823","MEAN_MOTION_DOT":"0.00000755","FILE":"3462783","PERIAPSIS":"546.097","EPHEMERIS_TYPE":"0","EPOCH":"2022-05-24T16:47:52.046880","OBJECT_ID":"2021-040AW","REV_AT_EPOCH":"5773","ECCENTRICITY":"0.00016840","MEAN_MOTION_DDOT":"0.0000000000000","TIME_SYSTEM":"UTC","BSTAR":"0.00006957800000","SEMIMAJOR_AXIS":"6925.398","CENTER_NAME":"EARTH","MEAN_ANOMALY":"303.7326","COUNTRY_CODE":"US","SITE":"AFETR","INCLINATION":"53.0563","DECAY_DATE":null,"RCS_SIZE":"LARGE","MEAN_ELEMENT_THEORY":"SGP4","PERIOD":"95.593","ELEMENT_SET_NO":"999","OBJECT_NAME":"STARLINK-2722","APOAPSIS":"548.430","NORAD_CAT_ID":"48472","CLASSIFICATION_TYPE":"U","RA_OF_ASC_NODE":"289.0826","GP_ID":"204455318","TLE_LINE1":"1 48472U 21040AW  22144.69990795  .00000755  00000-0  69578-4 0  9995","MEAN_MOTION":"15.06383746","LAUNCH_DATE":"2021-05-09","OBJECT_TYPE":"PAYLOAD","TLE_LINE2":"2 48472  53.0563 289.0826 0001684  56.3823 303.7326 15.06383746 57739"},{"TLE_LINE2":"2 48473  53.0553 289.2070 0001971  46.0890 314.0261 15.06393286 57734","LAUNCH_DATE":"2021-05-09","OBJECT_TYPE":"PAYLOAD","TLE_LINE1":"1 48473U 21040AX  22144.67040644 -.00000114  00000-0  11239-4 0  9994","MEAN_MOTION":"15.06393286","RA_OF_ASC_NODE":"289.2070","GP_ID":"204455562","NORAD_CAT_ID":"48473","APOAPSIS":"548.599","CLASSIFICATION_TYPE":"U","RCS_SIZE":"LARGE","PERIOD":"95.593","MEAN_ELEMENT_THEORY":"SGP4","INCLINATION":"53.0553","DECAY_DATE":null,"OBJECT_NAME":"STARLINK-2658","ELEMENT_SET_NO":"999","SITE":"AFETR","COUNTRY_CODE":"US","BSTAR":"0.00001123900000","TIME_SYSTEM":"UTC","CENTER_NAME":"EARTH","MEAN_ANOMALY":"314.0261","SEMIMAJOR_AXIS":"6925.369","EPHEMERIS_TYPE":"0","OBJECT_ID":"2021-040AX","EPOCH":"2022-05-24T16:05:23.116416","PERIAPSIS":"545.869","ECCENTRICITY":"0.00019710","MEAN_MOTION_DDOT":"0.0000000000000","REV_AT_EPOCH":"5773","REF_FRAME":"TEME","FILE":"3462783","ARG_OF_PERICENTER":"46.0890","MEAN_MOTION_DOT":"-0.00000114"},{"OBJECT_TYPE":"PAYLOAD","LAUNCH_DATE":"2021-05-09","TLE_LINE2":"2 48474  53.0575 288.4685 0001525  81.5861 278.5301 15.06395209 57757","RA_OF_ASC_NODE":"288.4685","GP_ID":"204453818","MEAN_MOTION":"15.06395209","TLE_LINE1":"1 48474U 21040AY  22144.83627698 -.00001018  00000-0 -49443-4 0  9996","APOAPSIS":"548.284","NORAD_CAT_ID":"48474","CLASSIFICATION_TYPE":"U","DECAY_DATE":null,"INCLINATION":"53.0575","RCS_SIZE":"LARGE","PERIOD":"95.592","MEAN_ELEMENT_THEORY":"SGP4","ELEMENT_SET_NO":"999","OBJECT_NAME":"STARLINK-2697","COUNTRY_CODE":"US","SITE":"AFETR","TIME_SYSTEM":"UTC","BSTAR":"-0.00004944300000","SEMIMAJOR_AXIS":"6925.363","CENTER_NAME":"EARTH","MEAN_ANOMALY":"278.5301","PERIAPSIS":"546.172","EPHEMERIS_TYPE":"0","OBJECT_ID":"2021-040AY","EPOCH":"2022-05-24T20:04:14.331072","REV_AT_EPOCH":"5775","ECCENTRICITY":"0.00015250","MEAN_MOTION_DDOT":"0.0000000000000","REF_FRAME":"TEME","ARG_OF_PERICENTER":"81.5861","MEAN_MOTION_DOT":"-0.00001018","FILE":"3462783"},{"FILE":"3462783","MEAN_MOTION_DOT":"0.00001003","ARG_OF_PERICENTER":"56.2801","REF_FRAME":"TEME","MEAN_MOTION_DDOT":"0.0000000000000","ECCENTRICITY":"0.00018050","REV_AT_EPOCH":"5773","OBJECT_ID":"2021-040AZ","EPOCH":"2022-05-24T16:10:41.433888","EPHEMERIS_TYPE":"0","PERIAPSIS":"545.973","MEAN_ANOMALY":"303.8359","CENTER_NAME":"EARTH","SEMIMAJOR_AXIS":"6925.358","BSTAR":"0.00008626600000","TIME_SYSTEM":"UTC","SITE":"AFETR","COUNTRY_CODE":"US","OBJECT_NAME":"STARLINK-2619","ELEMENT_SET_NO":"999","PERIOD":"95.592","MEAN_ELEMENT_THEORY":"SGP4","RCS_SIZE":"LARGE","DECAY_DATE":null,"INCLINATION":"53.0553","CLASSIFICATION_TYPE":"U","NORAD_CAT_ID":"48475","APOAPSIS":"548.473","MEAN_MOTION":"15.06397019","TLE_LINE1":"1 48475U 21040AZ  22144.67409067  .00001003  00000-0  86266-4 0  9993","GP_ID":"204454068","RA_OF_ASC_NODE":"289.2051","TLE_LINE2":"2 48475  53.0553 289.2051 0001805  56.2801 303.8359 15.06397019 57738","LAUNCH_DATE":"2021-05-09","OBJECT_TYPE":"PAYLOAD"},{"REF_FRAME":"TEME","MEAN_MOTION_DOT":"0.00004520","ARG_OF_PERICENTER":"77.3140","FILE":"3462783","PERIAPSIS":"546.071","EPHEMERIS_TYPE":"0","EPOCH":"2022-05-24T18:18:04.527360","OBJECT_ID":"2021-040BA","REV_AT_EPOCH":"5774","ECCENTRICITY":"0.00016710","MEAN_MOTION_DDOT":"0.0000000000000","TIME_SYSTEM":"UTC","BSTAR":"0.00032219000000","SEMIMAJOR_AXIS":"6925.363","CENTER_NAME":"EARTH","MEAN_ANOMALY":"282.8035","COUNTRY_CODE":"US","SITE":"AFETR","DECAY_DATE":null,"INCLINATION":"53.0549","RCS_SIZE":"LARGE","PERIOD":"95.592","MEAN_ELEMENT_THEORY":"SGP4","ELEMENT_SET_NO":"999","OBJECT_NAME":"STARLINK-2723","APOAPSIS":"548.386","NORAD_CAT_ID":"48476","CLASSIFICATION_TYPE":"U","RA_OF_ASC_NODE":"288.7924","GP_ID":"204454820","MEAN_MOTION":"15.06395196","TLE_LINE1":"1 48476U 21040BA  22144.76255240  .00004520  00000-0  32219-3 0  9991","LAUNCH_DATE":"2021-05-09","OBJECT_TYPE":"PAYLOAD","TLE_LINE2":"2 48476  53.0549 288.7924 0001671  77.3140 282.8035 15.06395196 57740"},{"REV_AT_EPOCH":"5774","MEAN_MOTION_DDOT":"0.0000000000000","ECCENTRICITY":"0.00017650","PERIAPSIS":"546.000","OBJECT_ID":"2021-040BC","EPOCH":"2022-05-24T17:56:51.055296","EPHEMERIS_TYPE":"0","ARG_OF_PERICENTER":"69.4289","MEAN_MOTION_DOT":"0.00000590","FILE":"3462783","REF_FRAME":"TEME","COUNTRY_CODE":"US","SITE":"AFETR","SEMIMAJOR_AXIS":"6925.358","MEAN_ANOMALY":"290.6889","CENTER_NAME":"EARTH","TIME_SYSTEM":"UTC","BSTAR":"0.00005853600000","CLASSIFICATION_TYPE":"U","APOAPSIS":"548.445","NORAD_CAT_ID":"48478","ELEMENT_SET_NO":"999","OBJECT_NAME":"STARLINK-2728","INCLINATION":"53.0566","DECAY_DATE":null,"PERIOD":"95.592","MEAN_ELEMENT_THEORY":"SGP4","RCS_SIZE":"LARGE","OBJECT_TYPE":"PAYLOAD","LAUNCH_DATE":"2021-05-09","TLE_LINE2":"2 48478  53.0566 288.8751 0001765  69.4289 290.6889 15.06397056 57741","GP_ID":"204455064","RA_OF_ASC_NODE":"288.8751","TLE_LINE1":"1 48478U 02032DG  22144.74781314  .00000590  00000-0  58536-4 0  9991","MEAN_MOTION":"15.06397056"},{"MEAN_MOTION":"15.06391798","TLE_LINE1":"1 48479U 21040BD  22144.74412923 -.00000933  00000-0 -43764-4 0  9999","RA_OF_ASC_NODE":"288.8888","GP_ID":"204454318","TLE_LINE2":"2 48479  53.0564 288.8888 0001527  67.2955 292.8195 15.06391798 57744","OBJECT_TYPE":"PAYLOAD","LAUNCH_DATE":"2021-05-09","OBJECT_NAME":"STARLINK-2755","ELEMENT_SET_NO":"999","RCS_SIZE":"LARGE","MEAN_ELEMENT_THEORY":"SGP4","PERIOD":"95.593","INCLINATION":"53.0564","DECAY_DATE":null,"CLASSIFICATION_TYPE":"U","NORAD_CAT_ID":"48479","APOAPSIS":"548.296","CENTER_NAME":"EARTH","MEAN_ANOMALY":"292.8195","SEMIMAJOR_AXIS":"6925.374","BSTAR":"-0.00004376400000","TIME_SYSTEM":"UTC","SITE":"AFETR","COUNTRY_CODE":"US","FILE":"3462783","ARG_OF_PERICENTER":"67.2955","MEAN_MOTION_DOT":"-0.00000933","REF_FRAME":"TEME","ECCENTRICITY":"0.00015270","MEAN_MOTION_DDOT":"0.0000000000000","REV_AT_EPOCH":"5774","EPHEMERIS_TYPE":"0","OBJECT_ID":"2021-040BD","EPOCH":"2022-05-24T17:51:32.765472","PERIAPSIS":"546.181"},{"REV_AT_EPOCH":"5759","MEAN_MOTION_DDOT":"0.0000000000000","ECCENTRICITY":"0.00017830","PERIAPSIS":"545.994","OBJECT_ID":"2021-040BE","EPOCH":"2022-05-24T16:35:54.203712","EPHEMERIS_TYPE":"0","MEAN_MOTION_DOT":"0.00000042","ARG_OF_PERICENTER":"51.4904","FILE":"3462783","REF_FRAME":"TEME","COUNTRY_CODE":"US","SITE":"AFETR","SEMIMAJOR_AXIS":"6925.364","MEAN_ANOMALY":"308.6244","CENTER_NAME":"EARTH","TIME_SYSTEM":"UTC","BSTAR":"0.00002170000000","CLASSIFICATION_TYPE":"U","APOAPSIS":"548.464","NORAD_CAT_ID":"48480","ELEMENT_SET_NO":"999","OBJECT_NAME":"STARLINK-2690","DECAY_DATE":null,"INCLINATION":"53.0566","PERIOD":"95.592","MEAN_ELEMENT_THEORY":"SGP4","RCS_SIZE":"LARGE","OBJECT_TYPE":"PAYLOAD","LAUNCH_DATE":"2021-05-09","TLE_LINE2":"2 48480  53.0566 299.1226 0001783  51.4904 308.6244 15.06394920 57596","GP_ID":"204454568","RA_OF_ASC_NODE":"299.1226","TLE_LINE1":"1 48480U 21040BE  22144.69159958  .00000042  00000-0  21700-4 0  9996","MEAN_MOTION":"15.06394920"},{"SITE":"AFETR","COUNTRY_CODE":"US","BSTAR":"0.00789910000000","TIME_SYSTEM":"UTC","MEAN_ANOMALY":"293.2927","CENTER_NAME":"EARTH","SEMIMAJOR_AXIS":"6929.985","OBJECT_ID":"2021-040BF","EPOCH":"2022-05-24T17:33:36.906624","EPHEMERIS_TYPE":"0","PERIAPSIS":"550.575","MEAN_MOTION_DDOT":"0.0000000000000","ECCENTRICITY":"0.00018400","REV_AT_EPOCH":"5759","REF_FRAME":"TEME","FILE":"3462783","MEAN_MOTION_DOT":"0.00114544","ARG_OF_PERICENTER":"66.8255","TLE_LINE2":"2 48481  53.0558 299.2127 0001840  66.8255 293.2927 15.04888474 57599","LAUNCH_DATE":"2021-05-09","OBJECT_TYPE":"PAYLOAD","TLE_LINE1":"1 48481U 21040BF  22144.73167716  .00114544  00000-0  78991-2 0  9998","MEAN_MOTION":"15.04888474","GP_ID":"204455319","RA_OF_ASC_NODE":"299.2127","NORAD_CAT_ID":"48481","APOAPSIS":"553.125","CLASSIFICATION_TYPE":"U","MEAN_ELEMENT_THEORY":"SGP4","PERIOD":"95.688","RCS_SIZE":"LARGE","INCLINATION":"53.0558","DECAY_DATE":null,"OBJECT_NAME":"STARLINK-2706","ELEMENT_SET_NO":"999"}];
